{
  "type": "FeatureCollection",
  "features": [
    {
      "type": "Feature",
      "properties": {
        "norad_id": 34492,
        "name": "IRIDIUM 33 DEB",
        "group": "iridium-33-debris",
        "lat": -68.34898367062392,
        "lon": -38.62796681798275,
        "alt_km": 805.2699947591445,
        "timestamp": "2025-12-23T09:49:07.468087+00:00",
        "meta_object_name": "IRIDIUM 33 DEB",
        "meta_object_id": "1997-051GH",
        "meta_epoch": "2025-12-22T16:27:23.909760",
        "meta_mean_motion": 14.25892201,
        "meta_eccentricity": 0.01887746,
        "meta_inclination": 86.4712,
        "meta_ra_of_asc_node": 330.6072,
        "meta_arg_of_pericenter": 205.8586,
        "meta_mean_anomaly": 332.2477,
        "meta_ephemeris_type": 0,
        "meta_classification_type": "U",
        "meta_norad_cat_id": 34492,
        "meta_element_set_no": 999,
        "meta_rev_at_epoch": 85200,
        "meta_bstar": 0.0029608099,
        "meta_mean_motion_dot": 8.523e-05,
        "meta_mean_motion_ddot": 0,
        "tle_line1": "1 34492U 97051GH  25356.68569340  .00008523  00000+0  29608-2 0  9990",
        "tle_line2": "2 34492  86.4712 330.6072 0188774 205.8586 332.2477 14.25892201852009"
      },
      "geometry": {
        "type": "Point",
        "coordinates": [
          -38.62796681798275,
          -68.34898367062392
        ]
      }
    },
    {
      "type": "Feature",
      "properties": {
        "norad_id": 34497,
        "name": "IRIDIUM 33 DEB",
        "group": "iridium-33-debris",
        "lat": -49.79915975114982,
        "lon": -127.73754203291273,
        "alt_km": 792.1368251957792,
        "timestamp": "2025-12-23T09:49:07.468097+00:00",
        "meta_object_name": "IRIDIUM 33 DEB",
        "meta_object_id": "1997-051GN",
        "meta_epoch": "2025-12-21T03:02:18.965760",
        "meta_mean_motion": 14.27475874,
        "meta_eccentricity": 0.00780469,
        "meta_inclination": 86.2771,
        "meta_ra_of_asc_node": 48.8187,
        "meta_arg_of_pericenter": 312.1215,
        "meta_mean_anomaly": 76.3389,
        "meta_ephemeris_type": 0,
        "meta_classification_type": "U",
        "meta_norad_cat_id": 34497,
        "meta_element_set_no": 999,
        "meta_rev_at_epoch": 87003,
        "meta_bstar": 0.00042941712,
        "meta_mean_motion_dot": 1.107e-05,
        "meta_mean_motion_ddot": 0,
        "tle_line1": "1 34497U 97051GN  25355.12660840  .00001107  00000+0  42942-3 0  9998",
        "tle_line2": "2 34497  86.2771  48.8187 0078046 312.1215  76.3389 14.27475874870039"
      },
      "geometry": {
        "type": "Point",
        "coordinates": [
          -127.73754203291273,
          -49.79915975114982
        ]
      }
    },
    {
      "type": "Feature",
      "properties": {
        "norad_id": 34508,
        "name": "IRIDIUM 33 DEB",
        "group": "iridium-33-debris",
        "lat": 86.36845162133115,
        "lon": -171.81957732670054,
        "alt_km": 724.3567856080454,
        "timestamp": "2025-12-23T09:49:07.468107+00:00",
        "meta_object_name": "IRIDIUM 33 DEB",
        "meta_object_id": "1997-051GZ",
        "meta_epoch": "2025-12-22T06:41:24.031968",
        "meta_mean_motion": 14.38495257,
        "meta_eccentricity": 0.00666176,
        "meta_inclination": 86.3708,
        "meta_ra_of_asc_node": 98.5996,
        "meta_arg_of_pericenter": 142.363,
        "meta_mean_anomaly": 218.2258,
        "meta_ephemeris_type": 0,
        "meta_classification_type": "U",
        "meta_norad_cat_id": 34508,
        "meta_element_set_no": 999,
        "meta_rev_at_epoch": 87446,
        "meta_bstar": 0.0011650926,
        "meta_mean_motion_dot": 3.671e-05,
        "meta_mean_motion_ddot": 0,
        "tle_line1": "1 34508U 97051GZ  25356.27875037  .00003671  00000+0  11651-2 0  9994",
        "tle_line2": "2 34508  86.3708  98.5996 0066617 142.3630 218.2258 14.38495257874460"
      },
      "geometry": {
        "type": "Point",
        "coordinates": [
          -171.81957732670054,
          86.36845162133115
        ]
      }
    },
    {
      "type": "Feature",
      "properties": {
        "norad_id": 34521,
        "name": "IRIDIUM 33 DEB",
        "group": "iridium-33-debris",
        "lat": 34.88590611183962,
        "lon": -156.68089857642568,
        "alt_km": 678.0697557372177,
        "timestamp": "2025-12-23T09:49:07.468117+00:00",
        "meta_object_name": "IRIDIUM 33 DEB",
        "meta_object_id": "1997-051HN",
        "meta_epoch": "2025-12-22T20:01:49.149696",
        "meta_mean_motion": 14.63445001,
        "meta_eccentricity": 0.00028204,
        "meta_inclination": 86.3785,
        "meta_ra_of_asc_node": 26.103,
        "meta_arg_of_pericenter": 173.5294,
        "meta_mean_anomaly": 186.5955,
        "meta_ephemeris_type": 0,
        "meta_classification_type": "U",
        "meta_norad_cat_id": 34521,
        "meta_element_set_no": 999,
        "meta_rev_at_epoch": 88620,
        "meta_bstar": 0.00087813516,
        "meta_mean_motion_dot": 4.565e-05,
        "meta_mean_motion_ddot": 0,
        "tle_line1": "1 34521U 97051HN  25356.83459664  .00004565  00000+0  87814-3 0  9993",
        "tle_line2": "2 34521  86.3785  26.1030 0002820 173.5294 186.5955 14.63445001886200"
      },
      "geometry": {
        "type": "Point",
        "coordinates": [
          -156.68089857642568,
          34.88590611183962
        ]
      }
    },
    {
      "type": "Feature",
      "properties": {
        "norad_id": 34525,
        "name": "IRIDIUM 33 DEB",
        "group": "iridium-33-debris",
        "lat": -77.55574325933232,
        "lon": -121.00056322678171,
        "alt_km": 760.7503731643328,
        "timestamp": "2025-12-23T09:49:07.468127+00:00",
        "meta_object_name": "IRIDIUM 33 DEB",
        "meta_object_id": "1997-051HS",
        "meta_epoch": "2025-12-22T21:47:49.036416",
        "meta_mean_motion": 14.42928681,
        "meta_eccentricity": 0.00063535,
        "meta_inclination": 86.3718,
        "meta_ra_of_asc_node": 42.5032,
        "meta_arg_of_pericenter": 71.7431,
        "meta_mean_anomaly": 105.9981,
        "meta_ephemeris_type": 0,
        "meta_classification_type": "U",
        "meta_norad_cat_id": 34525,
        "meta_element_set_no": 999,
        "meta_rev_at_epoch": 88234,
        "meta_bstar": 0.00032368644,
        "meta_mean_motion_dot": 1.102e-05,
        "meta_mean_motion_ddot": 0,
        "tle_line1": "1 34525U 97051HS  25356.90820644  .00001102  00000+0  32369-3 0  9994",
        "tle_line2": "2 34525  86.3718  42.5032 0006353  71.7431 105.9981 14.42928681882343"
      },
      "geometry": {
        "type": "Point",
        "coordinates": [
          -121.00056322678171,
          -77.55574325933232
        ]
      }
    },
    {
      "type": "Feature",
      "properties": {
        "norad_id": 34529,
        "name": "IRIDIUM 33 DEB",
        "group": "iridium-33-debris",
        "lat": 64.37155553587692,
        "lon": 38.48158354924299,
        "alt_km": 749.5916473620673,
        "timestamp": "2025-12-23T09:49:07.468137+00:00",
        "meta_object_name": "IRIDIUM 33 DEB",
        "meta_object_id": "1997-051HW",
        "meta_epoch": "2025-12-22T11:50:55.230720",
        "meta_mean_motion": 14.4062334,
        "meta_eccentricity": 0.00059058,
        "meta_inclination": 86.3633,
        "meta_ra_of_asc_node": 31.2535,
        "meta_arg_of_pericenter": 148.7666,
        "meta_mean_anomaly": 211.3885,
        "meta_ephemeris_type": 0,
        "meta_classification_type": "U",
        "meta_norad_cat_id": 34529,
        "meta_element_set_no": 999,
        "meta_rev_at_epoch": 88282,
        "meta_bstar": 0.00011217968,
        "meta_mean_motion_dot": 3.78e-06,
        "meta_mean_motion_ddot": 0,
        "tle_line1": "1 34529U 97051HW  25356.49369480  .00000378  00000+0  11218-3 0  9992",
        "tle_line2": "2 34529  86.3633  31.2535 0005905 148.7666 211.3885 14.40623340882823"
      },
      "geometry": {
        "type": "Point",
        "coordinates": [
          38.48158354924299,
          64.37155553587692
        ]
      }
    },
    {
      "type": "Feature",
      "properties": {
        "norad_id": 34538,
        "name": "IRIDIUM 33 DEB",
        "group": "iridium-33-debris",
        "lat": -18.995879217100228,
        "lon": -0.4026775859778119,
        "alt_km": 739.9557859433462,
        "timestamp": "2025-12-23T09:49:07.468148+00:00",
        "meta_object_name": "IRIDIUM 33 DEB",
        "meta_object_id": "1997-051JF",
        "meta_epoch": "2025-12-22T06:12:04.821696",
        "meta_mean_motion": 14.42700609,
        "meta_eccentricity": 0.00320413,
        "meta_inclination": 86.2762,
        "meta_ra_of_asc_node": 1.3859,
        "meta_arg_of_pericenter": 295.0641,
        "meta_mean_anomaly": 192.9769,
        "meta_ephemeris_type": 0,
        "meta_classification_type": "U",
        "meta_norad_cat_id": 34538,
        "meta_element_set_no": 999,
        "meta_rev_at_epoch": 87893,
        "meta_bstar": 0.00089518329,
        "meta_mean_motion_dot": 3.015e-05,
        "meta_mean_motion_ddot": 0,
        "tle_line1": "1 34538U 97051JF  25356.25838914  .00003015  00000+0  89518-3 0  9998",
        "tle_line2": "2 34538  86.2762   1.3859 0032041 295.0641 192.9769 14.42700609878930"
      },
      "geometry": {
        "type": "Point",
        "coordinates": [
          -0.4026775859778119,
          -18.995879217100228
        ]
      }
    }
  ]
}